{
  "norad_id": 54850,
  "name": "STARLINK-5087",
  "history": [
    {
      "epoch": "2026-03-28T04:24:17.256384Z",
      "apogee_km": 486.0772170798309,
      "perigee_km": 485.0450541541968,
      "latitude_deg": -1.0420791016369626e-05,
      "longitude_deg": 125.0617532018812,
      "height_km": 485.3344045422475,
      "semi_major_axis_km": 6863.698135617014,
      "eccentricity": 7.519e-05,
      "inclination_deg": 43.0018,
      "raan_deg": 16.7413,
      "arg_perigee_deg": 270.35,
      "mean_anomaly_deg": 89.7265,
      "mean_motion_rev_day": 15.2674146
    },
    {
      "epoch": "2026-03-29T03:57:23.656032Z",
      "apogee_km": 486.1441024173964,
      "perigee_km": 484.9237417274526,
      "latitude_deg": -6.447949757723277e-06,
      "longitude_deg": 125.28195486414437,
      "height_km": 485.4187622651183,
      "semi_major_axis_km": 6863.670922072424,
      "eccentricity": 8.89e-05,
      "inclination_deg": 43.0026,
      "raan_deg": 11.2054,
      "arg_perigee_deg": 259.7827,
      "mean_anomaly_deg": 100.2924,
      "mean_motion_rev_day": 15.2675054
    },
    {
      "epoch": "2026-03-30T03:30:31.520160Z",
      "apogee_km": 485.93299814950024,
      "perigee_km": 485.1711286634627,
      "latitude_deg": 2.751321312283798e-06,
      "longitude_deg": 125.49854422046529,
      "height_km": 485.2076871467469,
      "semi_major_axis_km": 6863.689063406481,
      "eccentricity": 5.55e-05,
      "inclination_deg": 43.0017,
      "raan_deg": 5.672,
      "arg_perigee_deg": 288.4554,
      "mean_anomaly_deg": 71.6237,
      "mean_motion_rev_day": 15.26744487
    },
    {
      "epoch": "2026-03-30T11:21:34.225056Z",
      "apogee_km": 485.9337601129837,
      "perigee_km": 485.1955003656358,
      "latitude_deg": 1.997682097435528e-05,
      "longitude_deg": 5.570273666517415,
      "height_km": 485.1940615561053,
      "semi_major_axis_km": 6863.701630239309,
      "eccentricity": 5.378e-05,
      "inclination_deg": 43.0007,
      "raan_deg": 3.8274,
      "arg_perigee_deg": 293.4074,
      "mean_anomaly_deg": 66.6721,
      "mean_motion_rev_day": 15.26740294
    },
    {
      "epoch": "2026-03-30T17:38:23.967168Z",
      "apogee_km": 486.07089345629356,
      "perigee_km": 484.9462164956558,
      "latitude_deg": 5.6803798924957296e-05,
      "longitude_deg": -90.37387586879005,
      "height_km": 485.35502926712263,
      "semi_major_axis_km": 6863.645554975975,
      "eccentricity": 8.193e-05,
      "inclination_deg": 43.0013,
      "raan_deg": 2.3484,
      "arg_perigee_deg": 262.8418,
      "mean_anomaly_deg": 97.2341,
      "mean_motion_rev_day": 15.26759004
    },
    {
      "epoch": "2026-03-31T10:54:41.038560Z",
      "apogee_km": 486.08486782690215,
      "perigee_km": 484.9660908427704,
      "latitude_deg": -4.515978342151523e-05,
      "longitude_deg": 5.786173990629457,
      "height_km": 485.3714386295745,
      "semi_major_axis_km": 6863.662479334836,
      "eccentricity": 8.15e-05,
      "inclination_deg": 43.0015,
      "raan_deg": 358.289,
      "arg_perigee_deg": 262.8602,
      "mean_anomaly_deg": 97.2156,
      "mean_motion_rev_day": 15.26753357
    },
    {
      "epoch": "2026-04-01T02:36:45.874656Z",
      "apogee_km": 486.0839230330357,
      "perigee_km": 485.0317186170023,
      "latitude_deg": 1.643892374454709e-05,
      "longitude_deg": 125.93095892003653,
      "height_km": 485.37614773419506,
      "semi_major_axis_km": 6863.694820825019,
      "eccentricity": 7.665e-05,
      "inclination_deg": 43.0014,
      "raan_deg": 354.5987,
      "arg_perigee_deg": 265.4267,
      "mean_anomaly_deg": 94.6497,
      "mean_motion_rev_day": 15.26742566
    },
    {
      "epoch": "2026-04-02T10:00:55.536480Z",
      "apogee_km": 486.0738387758811,
      "perigee_km": 485.0401664590863,
      "latitude_deg": -4.750053295719528e-06,
      "longitude_deg": 6.221317715157808,
      "height_km": 485.4448858635296,
      "semi_major_axis_km": 6863.694002617483,
      "eccentricity": 7.53e-05,
      "inclination_deg": 43.0009,
      "raan_deg": 347.219,
      "arg_perigee_deg": 257.5306,
      "mean_anomaly_deg": 102.5461,
      "mean_motion_rev_day": 15.26742839
    },
    {
      "epoch": "2026-04-03T01:42:59.279616Z",
      "apogee_km": 486.1110374159589,
      "perigee_km": 484.9295274513597,
      "latitude_deg": -1.0608446254106024e-05,
      "longitude_deg": 126.36999667997466,
      "height_km": 485.240835060842,
      "semi_major_axis_km": 6863.657282433659,
      "eccentricity": 8.607e-05,
      "inclination_deg": 43.0037,
      "raan_deg": 343.5281,
      "arg_perigee_deg": 275.4572,
      "mean_anomaly_deg": 84.6181,
      "mean_motion_rev_day": 15.26755091
    },
    {
      "epoch": "2026-04-04T01:16:06.875904Z",
      "apogee_km": 487.07406916626223,
      "perigee_km": 483.94973618576296,
      "latitude_deg": 2.713514929644146e-07,
      "longitude_deg": 126.58970616995644,
      "height_km": 485.19301066502504,
      "semi_major_axis_km": 6863.648902676012,
      "eccentricity": 0.0002276,
      "inclination_deg": 43.0022,
      "raan_deg": 337.9967,
      "arg_perigee_deg": 273.5454,
      "mean_anomaly_deg": 86.5137,
      "mean_motion_rev_day": 15.26757887
    },
    {
      "epoch": "2026-04-05T13:22:53.658336Z",
      "apogee_km": 486.2875266935098,
      "perigee_km": 484.79948076030087,
      "latitude_deg": -1.848393265421058e-05,
      "longitude_deg": -65.07755053992354,
      "height_km": 485.27703442976224,
      "semi_major_axis_km": 6863.680503726905,
      "eccentricity": 0.0001084,
      "inclination_deg": 43.0001,
      "raan_deg": 329.5075,
      "arg_perigee_deg": 273.3134,
      "mean_anomaly_deg": 86.7593,
      "mean_motion_rev_day": 15.26747343
    },
    {
      "epoch": "2026-04-06T00:22:20.938368Z",
      "apogee_km": 485.9853448680442,
      "perigee_km": 485.0930669612753,
      "latitude_deg": 8.235778023998969e-06,
      "longitude_deg": 127.02422964357415,
      "height_km": 485.10135426870863,
      "semi_major_axis_km": 6863.6762059146595,
      "eccentricity": 6.5e-05,
      "inclination_deg": 43.0,
      "raan_deg": 326.9243,
      "arg_perigee_deg": 298.6538,
      "mean_anomaly_deg": 61.4248,
      "mean_motion_rev_day": 15.26748777
    },
    {
      "epoch": "2026-04-07T07:46:31.652544Z",
      "apogee_km": 486.3660291116994,
      "perigee_km": 484.7709039612773,
      "latitude_deg": -1.825633897658073e-05,
      "longitude_deg": 7.308681195514425,
      "height_km": 485.37626389682794,
      "semi_major_axis_km": 6863.7054665364885,
      "eccentricity": 0.0001162,
      "inclination_deg": 43.002,
      "raan_deg": 319.5431,
      "arg_perigee_deg": 267.7729,
      "mean_anomaly_deg": 92.2989,
      "mean_motion_rev_day": 15.26739014
    },
    {
      "epoch": "2026-04-07T23:28:34.443552Z",
      "apogee_km": 486.54812746001517,
      "perigee_km": 484.2611953784308,
      "latitude_deg": 1.8680766164417592e-05,
      "longitude_deg": 127.46328153822643,
      "height_km": 485.2465957223921,
      "semi_major_axis_km": 6863.541661419223,
      "eccentricity": 0.0001666,
      "inclination_deg": 43.0009,
      "raan_deg": 315.8541,
      "arg_perigee_deg": 266.7487,
      "mean_anomaly_deg": 93.3174,
      "mean_motion_rev_day": 15.2679367
    },
    {
      "epoch": "2026-04-09T21:00:38.229408Z",
      "apogee_km": 486.40934767200815,
      "perigee_km": 484.7085238191303,
      "latitude_deg": 8.864141070930386e-06,
      "longitude_deg": 151.87536022980836,
      "height_km": 485.4100328508354,
      "semi_major_axis_km": 6863.695935745569,
      "eccentricity": 0.0001239,
      "inclination_deg": 43.0004,
      "raan_deg": 305.152,
      "arg_perigee_deg": 264.9797,
      "mean_anomaly_deg": 95.0913,
      "mean_motion_rev_day": 15.26742194
    }
  ]
}